#aV2013 11 18  0  0  0.00000000     288 DD+AD WGS84 FIT  NGA
## 1767  86400.00000000   300.00000000 56614 0.0000000000000
+   31     1  2  3  4  5  6  7  8  9 10 11 12 13 14 15 16 17
+         18 19 20 21 22 23 24 25 26 27 28 29 31 32  0  0  0
+          0  0  0  0  0  0  0  0  0  0  0  0  0  0  0  0  0
+          0  0  0  0  0  0  0  0  0  0  0  0  0  0  0  0  0
+          0  0  0  0  0  0  0  0  0  0  0  0  0  0  0  0  0
++         2  2  2  2  2  2  2  2  2  2  2  2  2  2  2  2  2
++         2  2  2  2  2  2  2  2  2  2  2  2  2  2  2  0  0
++         0  0  0  0  0  0  0  0  0  0  0  0  0  0  0  0  0
++         0  0  0  0  0  0  0  0  0  0  0  0  0  0  0  0  0
++         0  0  0  0  0  0  0  0  0  0  0  0  0  0  0  0  0
%c cc cc ccc ccc cccc cccc cccc cccc ccccc ccccc ccccc ccccc
%c cc cc ccc ccc cccc cccc cccc cccc ccccc ccccc ccccc ccccc
%f  0.0000000  0.000000000  0.00000000000  0.000000000000000
%f  0.0000000  0.000000000  0.00000000000  0.000000000000000
%i    0    0    0    0      0      0      0      0         0
%i    0    0    0    0      0      0      0      0         0
/*      NGA, ST. LOUIS,MO.                                  
/*   EPHEMERIS COMPUTED FROM  1 DAYS OF DATA
/*   EPOCHA SMOOTHER  
/* CCCCCCCCCCCCCCCCCCCCCCCCCCCCCCCCCCCCCCCCCCCCCCCCCCCCCCCCC
*  2013 11 18  1 45  0.00000000                                                 
P  1 -15974.105886   -318.709252  21199.642223     95.099406                    
V  1  -8936.611578 -25466.877606  -6996.324608      0.032217                    
P  2  14200.216502  21609.300863  -6898.436753    461.949140                    
V  2    621.560483   9430.700148  29286.225826      0.021491                    
P  3 -22171.506906  -9203.927516 -12092.814872    287.642651                    
V  3  14556.752109  -2503.296335 -25771.922333      0.051471                    
P  4   5508.720186  25213.721553   5368.049334      3.302410                    
V  4  -6074.743494  -5451.729669  30382.931558      0.004026                    
P  5  11288.147558  10668.668608 -21578.176115   -397.349290                    
V  5 -17410.475055  21110.151899   1486.952961      0.007328                    
P  6 -16713.046932 -13256.169548 -16007.554932    154.466847                    
V  6  20425.278944   -108.330488 -20776.848866      0.171351                    
P  7  -8809.731296  15237.952292 -19719.940178    281.887778                    
V  7  -9573.493604 -23398.137091 -14068.751413      0.041894                    
P  8  -2302.356329  23118.691318 -12138.646231      9.957747                    
V  8  -5634.226074 -14891.950296 -27568.571330      0.002821                    
P  9   -367.689555  23400.509337 -12951.795475    283.857713                    
V  9  -7093.434032 -14005.058794 -26313.395173      0.028335                    
P 10  -4456.450121  21732.330673 -14602.593610   -102.229025                    
V 10 -13790.406034  12198.667121  23289.328094     -0.016147                    
P 11 -20688.726183  -6566.622553  14976.478422   -438.897257                    
V 11  -9737.950028 -17817.335982 -20374.731526     -0.033964                    
P 12  19811.624172  -6062.235643  16450.289617    168.724944                    
V 12 -12746.519547  16761.529368  21666.457117      0.022626                    
P 13 -18857.614182   7073.852014 -17519.340263     58.764272                    
V 13 -20805.476382  -6910.428365  19612.657175     -0.038572                    
P 14    337.157883 -15295.027337  21939.215396    210.345346                    
V 14  26597.192442   6117.769743   3753.240721     -0.010577                    
P 15  26493.780368   3410.157276      6.791945   -147.685247                    
V 15   -367.762067   3245.000545 -31087.062686     -0.019540                    
P 16 -10385.153000 -10353.226383 -22168.732240   -241.516200                    
V 16  19013.755847 -20565.642270   1026.842548      0.010880                    
P 17   -624.483235  15318.550094  21934.526822    -41.762197                    
V 17 -26731.703738  -5359.670800   2777.520383     -0.036920                    
P 18  16202.415973 -20807.933672    669.596217    285.537182                    
V 18   3483.267209   2346.806002 -31187.383325      0.021014                    
P 19 -25639.506714  -7677.548621  -1438.813681   -419.323384                    
V 19   2193.848840  -1851.664011 -31476.298981     -0.026696                    
P 20 -20136.326552  10615.257175  13436.245462    137.733249                    
V 20   7759.597635 -15968.790383  23993.009899      0.029123                    
P 21   7171.696597 -17792.118906 -17565.748555   -328.999617                    
V 21  10824.259305  21319.766979 -17113.228887     -0.017846                    
P 22   7658.951461 -22834.592707  11228.086053    195.774320                    
V 22  11551.177836  -8776.133745 -26338.747626      0.022054                    
P 23 -25444.185565   1404.250252  -8093.617917     29.240833                    
V 23  -9721.654044  -4239.165939  29084.627279     -0.033656                    
P 24  16943.935737   5056.354942  19834.352790    -17.580049                    
V 24   8064.613992  23886.163017 -12912.092081     -0.006944                    
P 25  19184.286329 -17266.669683   5973.079336    167.524814                    
V 25  -2976.309663   7455.788799  30922.247189      0.031510                    
P 26  20137.887318  13524.695236 -11822.148610    246.350770                    
V 26 -13822.256668  -2020.513968 -27058.088756     -0.102624                    
P 27 -19331.212608 -12473.450081 -13298.201259    -59.059425                    
V 27  16998.821810    478.084195 -25158.154324     -0.034521                    
P 28 -11396.858547  22017.660228   9882.518298    309.642255                    
V 28  -9277.160090   7374.025717 -29045.191415      0.030694                    
P 29  21891.996587  -5201.355488 -14042.331781    487.882411                    
V 29  17075.734039   5739.461303  24460.202611      0.029613                    
P 31  -6211.446780 -25416.110624   3700.505529    329.841286                    
V 31   3778.286138   3466.600268  31895.349787      0.006389                    
P 32 -17805.892810  -1770.899485  19541.427565   -528.147573                    
V 32  16137.439102 -18946.316580  13584.237656      0.046579                    
EOF
